#dP2019  2  7  0  0  0.00000000      96 __u+U ITR00 FIT  IAC
## 2039 345600.00000000   900.00000000 58521 0.0000000000000
+   92   C02C03C05C06C07C08C09C10C11C12C13C14C16E01E02E03E04
+        E05E07E08E09E11E12E13E14E15E18E19E21E24E25E26E27E30
+        E31E33E36G01G02G03G04G05G06G07G08G09G10G11G12G13G14
+        G15G16G17G18G19G20G21G22G23G24G25G26G27G28G29G30G31
+        G32R01R02R03R04R05R07R08R09R10R11R13R14R15R16R17R18
+        R19R20R21R22R23R24R26  0  0  0  0  0  0  0  0  0  0
++         0  0  0  0  0  0  0  0  0  0  0  0  0  0  0  0  0
++         0  0  0  0  0  0  0  0  0  0  0  0  0  0  0  0  0
++         0  0  0  0  0  0  0  0  0  0  0  0  0  0  0  0  0
++         0  0  0  0  0  0  0  0  0  0  0  0  0  0  0  0  0
++         0  0  0  0  0  0  0  0  0  0  0  0  0  0  0  0  0
++         0  0  0  0  0  0  0  0  0  0  0  0  0  0  0  0  0
%c M  cc GPS ccc cccc cccc cccc cccc ccccc ccccc ccccc ccccc
%c cc cc ccc ccc cccc cccc cccc cccc ccccc ccccc ccccc ccccc
%f  0.0000000  0.000000000  0.00000000000  0.000000000000000
%f  0.0000000  0.000000000  0.00000000000  0.000000000000000
%i    0    0    0    0      0      0      0      0         0
%i    0    0    0    0      0      0      0      0         0
/*                                                          
/*   RSA / INFORMATION & ANALYSIS CENTER (IAC) OF MCC       
/*   ULTRA-RAPID DETERMINATION                              
/* PCV:IGS14_2035 OL/AL:FES2004  NONE     YN ORB:CoN CLK:CoN
*  2019 02 07  8  0  0.00000000
PC02   4381.662010  41896.203995  -1157.597024   -300.704184
PC03 -14698.448432  39482.389815   -179.602281      7.515882
PC05  21926.669330  35972.884633  -1279.268974     10.514785
PC06 -16639.520530  38409.827390  -2880.248143    372.651701
PC07  -8001.284660  27151.417384  31486.407863    159.878959
PC08 -22963.095356  21619.179815 -28029.846550    106.592413
PC09  -8983.272014  39782.469600  10162.805154    512.213824
PC10   5113.315385  33706.119735  25177.230871   -472.970490
PC11 -22896.424020  10010.817581  12544.417221      6.310550
PC12  -7027.266360 -14305.917233  22966.511737    402.563043
PC13  -8778.204663  24351.145353 -33279.951472   -528.415600
PC14 -16890.018038  -9255.031347 -20155.416473    878.427444
PC16 -15525.571498  39049.050048  -2051.462449   -174.857639
PE01  -4195.353208 -20719.997733 -20721.946609   -537.262409
PE02   4224.180502  20723.747168  20700.307838     46.540191
PE03  -3428.612004  29375.272095   1367.151879   -130.830267
PE04  -9654.552901 -21484.598888 -17928.510835   -216.103306
PE05 -14591.412118  20096.810389 -16107.462555    111.756608
PE07  17175.970203    898.184029  24092.885778   -127.025036
PE08   9774.928866  21328.302909  18053.027009   6408.313088
PE09 -17041.679790   -702.687650 -24191.152383   6535.208761
PE11 -27250.573612   3039.422095  11132.441378   5720.123635
PE12 -13956.920871 -11300.210184  23538.241562   6114.024829
PE13  27185.699748  -3110.756653 -11282.325074    382.677717
PE14 -14826.758994  -3800.225438  17634.420216   6448.496291
PE15  14348.608826  10917.274539 -23460.744301    920.760697
PE18  20374.299435   6173.047569 -24696.300435   5548.399740
PE19   4682.324608 -29225.818809    546.475852     -8.563005
PE21  14949.941689  -8405.628810 -24128.115822   -518.314764
PE24 -24917.376949  -8468.374280  13562.402083   6245.920556
PE25 -14991.679738   8363.742906  24117.693739   1900.680296
PE26  24307.101838 -15167.527825   7441.625281   4931.635389
PE27  25021.714625   8737.030676 -13171.717062    534.141469
PE30  20540.919750  20695.184425   5036.822963   5126.527790
PE31 -20410.144546 -20725.840347  -5483.098092    912.905635
PE33   6927.419207 -18612.227051  21965.231841    847.977205
PE36 -24156.877969  15352.276994  -7522.603844    750.493014
PG01  12056.092771  13398.776926 -19782.309442   -158.818690
PG02  12131.964008 -14503.023514  19181.115956   -133.464755
PG03  12888.154068  23249.994169   -967.600954    181.720861
PG04  16742.773048    256.022549  20625.826314    107.058633
PG05   2269.669364 -19812.116107  17324.292309      1.029736
PG06  22956.053636  -7724.364759  10976.468974    280.988473
PG07  23889.711355   7215.504592   9981.305603     37.196085
PG08  -3742.067832  23451.918034 -11645.821850   -131.848142
PG09  13841.309494   6723.821220  21602.044186    461.880489
PG10 -16989.974058   -834.981087 -20394.847139    121.554705
PG11   6336.416689  15365.224206 -21259.919497   -664.024480
PG12  -9957.201771 -24547.235055  -3219.033290    270.004391
PG13  11826.977401 -23009.755718  -6046.030535    -75.740797
PG14 -18453.941116  16847.055989  -8427.289138    -91.844637
PG15   -771.976817 -22832.499882 -13469.292314   -328.944438
PG16  -3042.301446  19802.953730  17034.810227    -17.620225
PG17  18593.465985  -9306.648781 -16060.736650      6.266527
PG18    704.984385  15604.763619 -21963.279858     23.472704
PG19  19055.510303 -16228.208989  -9330.587432   -355.132571
PG20 -20475.641771  -9211.367530 -14407.276507    521.953353
PG21 -24997.305009  -4450.219966   8407.040251   -254.799071
PG22   8748.624847  23648.114957  -8189.749978   -639.947991
PG23   7077.485857  16720.147783  19561.147349   -198.055381
PG24  -7644.027801 -14851.165761 -20859.047209    -61.818608
PG25 -16969.061903 -19213.777094   7253.138910   -716.936793
PG26  -9830.557648  12645.497927  21149.520865    117.749652
PG27 -11458.968994  23674.658643  -2368.010661    -63.004816
PG28  16428.546746   3737.472036 -19895.803952    764.001511
PG29  -9971.820508 -11262.738014  21867.019533    276.073029
PG30  26621.092043     -0.010057  -1346.813697    -48.588237
PG31 -22151.932695   8297.863976  12518.036520     60.366504
PG32 -18500.542383  12090.622696 -14612.874548   -238.747308
PR01  -1636.188516 -25446.422346    310.528586     39.092085
PR02  -9309.261354 -15549.122107 -17942.111851    353.134166
PR03 -10738.502633   3255.679898 -22869.448303     -8.905300
PR04  -5583.306718  20488.558569 -14107.437154    294.263851
PR05   2400.446581  25300.983188   2058.962177     21.637401
PR07  10700.799385  -3865.698594  22862.994217    -57.429619
PR08   5959.688787 -19972.670581  14758.412812     19.205620
PR09  22243.093261  12423.139117   1822.022661     53.027061
PR10  21242.125723   4003.702382 -13625.299510     41.413316
PR11   7967.080671  -8223.949143 -22785.203568    -55.945330
PR13 -21972.141675 -12569.095025  -3180.671524    -19.844178
PR14 -21281.704720  -3656.629295  13583.021141     35.734840
PR15  -8700.120326   7591.907278  22763.260996     99.739233
PR16   9057.066569  14496.427878  18857.971208     11.113913
PR17 -21754.934754   8314.180713  10459.091083    202.525422
PR18 -18951.765773  15725.179030  -6507.573695     32.017401
PR19  -6241.926554  14444.017951 -20067.995445    -61.430902
PR20  12060.077303   4244.485235 -22067.487346   -368.036076
PR21  21813.840559  -8686.656596  -9933.882213    -29.907613
PR22  17717.011703 -16123.659392   8957.935574    -64.260158
PR23   1269.780872 -12680.789675  22096.991325    208.041764
PR24 -13328.222155  -3021.729646  21516.643253   -176.899433
PR26  10302.744858   5557.354859 -22642.703031     -5.160609
EOF
